EYESAT-1 (AO-27)        
1 22825U 93061C   17312.46977471  .00000033  00000-0  30638-4 0  9997
2 22825  98.8325 279.9623 0007343 271.2990  88.7351 14.30012563258025
CUTE-1 (CO-55)          
1 27844U 03031E   17312.59557413  .00000087  00000-0  59308-4 0  9999
2 27844  98.6898 319.5026 0008772 292.3748  67.6500 14.22073135744805
CUBESAT XI-IV (CO-57)   
1 27848U 03031J   17312.56428793  .00000068  00000-0  51116-4 0  9996
2 27848  98.6989 319.7899 0008752 303.3417  56.6922 14.21683092744684
CUBESAT XI 5            
1 28895U 05043F   17312.37359831  .00000335  00000-0  73293-4 0  9996
2 28895  97.8813 108.1759 0017813  50.7330 309.5450 14.63467981641342
CUTE-1.7+APD II (CO-65) 
1 32785U 08021C   17312.49125164  .00000612  00000-0  72200-4 0  9996
2 32785  97.5583 330.1162 0014323  54.4699 305.7852 14.87998897516282
COMPASS-1               
1 32787U 08021E   17312.81078905  .00001060  00000-0  10760-3 0  9994
2 32787  97.5474 340.1636 0012990  22.4035 337.7749 14.92799919517075
AAUSAT-II               
1 32788U 08021F   17312.57033165  .00001529  00000-0  14803-3 0  9999
2 32788  97.5452 343.0219 0012116  15.4264 344.7324 14.94094397517131
DELFI-C3 (DO-64)        
1 32789U 08021G   17312.22376310  .00003722  00000-0  26310-3 0  9997
2 32789  97.5433   7.3352 0011691 338.4291  21.6442 15.05446036518434
CANX-2                  
1 32790U 08021H   17312.83423186  .00000496  00000-0  59961-4 0  9994
2 32790  97.5571 328.7269 0015039  54.8971 305.3653 14.87714391516345
SEEDS II (CO-66)        
1 32791U 08021J   17312.53340897  .00000907  00000-0  98424-4 0  9993
2 32791  97.5528 334.9534 0014328  38.6668 321.5573 14.90379109516568
SWISSCUBE               
1 35932U 09051B   17312.37826428  .00000332  00000-0  86240-4 0  9993
2 35932  98.5161  93.6447 0008107 160.7882 199.3622 14.56081622431268
BEESAT                  
1 35933U 09051C   17312.35308708  .00000286  00000-0  75519-4 0  9993
2 35933  98.5201  95.0234 0006042 171.1055 189.0250 14.56193440431320
ITUPSAT 1               
1 35935U 09051E   17312.35251336  .00000251  00000-0  68958-4 0  9990
2 35935  98.5313  95.2775 0008439 168.2674 191.8720 14.55380276431208
TISAT 1                 
1 36799U 10035E   17312.34732397  .00001096  00000-0  11802-3 0  9996
2 36799  98.0795  78.1617 0011829 208.1420 151.9159 14.90588139397257
M-CUBED & EXP-1 PRIME   
1 37855U 11061F   17312.55698652  .00005597  00000-0  29443-3 0  9998
2 37855 101.7113 257.3073 0179032  14.9089 345.7304 15.03665285328015
HORYU 2                 
1 38340U 12025D   17312.54301135  .00000481  00000-0  78880-4 0  9992
2 38340  98.3773 321.5699 0011439 187.0343 173.0706 14.75439650284165
STRAND-1                
1 39090U 13009E   17312.49725786  .00000060  00000-0  36608-4 0  9999
2 39090  98.5391 156.4908 0008344 228.4121 131.6350 14.34993811246150
BRITE-AUSTRIA           
1 39091U 13009F   17312.50565070  .00000054  00000-0  34356-4 0  9991
2 39091  98.5357 155.8408 0009540 237.0154 123.0115 14.35048661246184
UNIBRITE                
1 39092U 13009G   17312.51762917  .00000044  00000-0  30917-4 0  9990
2 39092  98.5367 155.5304 0008492 229.3390 130.7057 14.34922525246177
AIST-2                  
1 39133U 13015D   17312.89321111  .00000440  00000-0  43636-4 0  9993
2 39133  64.8730 188.2060 0037227 257.6612 102.0339 15.04416913250069
SOMP                    
1 39134U 13015E   17312.62188569  .00003936  00000-0  19733-3 0  9996
2 39134  64.8634 120.0387 0033038 242.5127 117.2640 15.18430674251024
BEESAT-3                
1 39135U 13015F   17312.62082360  .00002978  00000-0  16207-3 0  9997
2 39135  64.8689 130.6050 0033200 262.8264  96.9086 15.16085507250819
BEESAT-2                
1 39136U 13015G   17312.58076296  .00002584  00000-0  14396-3 0  9994
2 39136  64.8682 132.9395 0033505 261.5035  98.2292 15.15583465250763
NEE-01 PEGASUS          
1 39151U 13018B   17312.80861885  .00000427  00000-0  63745-4 0  9992
2 39151  97.9821  43.4082 0015927 304.6656  55.3054 14.79803546244922
CUBEBUG-1 (CAPITAN BETO)
1 39153U 13018D   17312.82062356  .00000516  00000-0  74741-4 0  9999
2 39153  97.9847  44.3455 0015782 302.4401  57.5284 14.80278956244987
ESTCUBE 1               
1 39161U 13021C   17312.78998542 -.00000081  00000-0 -49565-5 0  9998
2 39161  98.0220  36.8749 0010336  51.9083 308.3048 14.71973218242028
POPACS 1                
1 39268U 13055D   17312.47508909  .00008534  00000-0  24263-3 0  9998
2 39268  81.0046 217.4561 0645566 155.9564 207.3259 14.32446466211363
POPACS 2                
1 39269U 13055E   17312.47054038  .00004667  00000-0  13775-3 0  9997
2 39269  81.0178 234.9993 0696115 201.6478 155.3910 14.20990298211788
POPACS 3                
1 39270U 13055F   17312.52025353  .00003044  00000-0  97224-4 0  9993
2 39270  81.0188 244.6109 0721463 230.5950 122.9203 14.13938346211164
FIREFLY                 
1 39404U 13064AA  17304.93805027  .14819696  74099-5  47644-3 0  9999
2 39404  40.4789 145.0538 0001854 314.5146  47.1024 16.45154788222993
ZACUBE-1 (TSHEPISOSAT)  
1 39417U 13066B   17312.16181400  .00000433  00000-0  61035-4 0  9994
2 39417  97.6137 347.3049 0059874 157.6491 202.7351 14.80812142214081
WNISAT-1                
1 39423U 13066H   17312.83036528  .00000291  00000-0  67555-4 0  9990
2 39423  97.6994 289.3395 0175564 346.5160  13.1404 14.52893994210234
TRITON-1                
1 39427U 13066M   17312.87738682  .00000413  00000-0  74364-4 0  9990
2 39427  97.6366 318.5322 0112904 244.9491 113.9960 14.67556715212267
GOMX 1                  
1 39430U 13066Q   17312.88733954  .00000509  00000-0  10202-3 0  9998
2 39430  97.6754 300.9684 0150676 306.4472  52.2918 14.58967755211020
BRITE-PL                
1 39431U 13066R   17312.44752064  .00000272  00000-0  67822-4 0  9992
2 39431  97.7261 277.5432 0203323  29.5763 331.6750 14.46885115209312
HUMSAT-D                
1 39433U 13066T   17312.42522829  .00001089  00000-0  11286-3 0  9995
2 39433  97.6361  11.1658 0032610  97.4554 263.0372 14.91635292214332
EAGLE 2                 
1 39436U 13066W   17312.53512230  .00114195  00000-0  21716-2 0  9996
2 39436  97.7135  66.4603 0007963 277.9255  82.1090 15.47793368218886
CUBEBUG-2 (LO-74)       
1 39440U 13066AA  17312.55576961  .00000507  00000-0  77751-4 0  9997
2 39440  97.6173 335.7547 0080449 190.9198 169.0270 14.75552144213381
NEE-02 KRYSAOR          
1 39441U 13066AB  17312.57791244  .00000284  00000-0  47518-4 0  9993
2 39441  97.6159 334.2736 0081708 194.9933 164.8854 14.74691065212105
FUNCUBE-1 (AO-73)       
1 39444U 13066AE  17312.67724147  .00000644  00000-0  85990-4 0  9991
2 39444  97.6151 349.0349 0059172 152.2429 208.1963 14.81567333213002
UWE-3                   
1 39446U 13066AG  17312.61790054  .00000482  00000-0  70850-4 0  9996
2 39446  97.6143 341.4474 0070575 173.7543 186.4565 14.78084772211949
BRITE-TORONTO           
1 40020U 14033L   17312.62537279  .00000180  00000-0  39346-4 0  9990
2 40020  97.8128 176.7488 0086521 226.7978 132.5978 14.66439900181149
DUCHIFAT-1              
1 40021U 14033M   17312.81971738  .00000998  00000-0  10908-3 0  9993
2 40021  97.9144 226.1572 0012774 178.5976 181.5279 14.90085571184132
FLOCK 1C-10             
1 40023U 14033P   17312.35894451  .00000471  00000-0  56081-4 0  9999
2 40023  97.9177 224.5822 0012027 189.2895 170.8093 14.88973171183953
NANOSATC-BR1            
1 40024U 14033Q   17312.41806799  .00000928  00000-0  10357-3 0  9997
2 40024  97.9093 224.4072 0012032 181.1637 178.9554 14.89382275184017
QB50P1                  
1 40025U 14033R   17312.54297699  .00000779  00000-0  89684-4 0  9999
2 40025  97.9066 223.3517 0012204 184.3747 175.7365 14.88558759183451
FLOCK 1C-7              
1 40026U 14033S   17312.77473414  .00000730  00000-0  82160-4 0  9995
2 40026  97.9153 225.9147 0010636 182.6219 177.4984 14.89712332184073
FLOCK 1C-1              
1 40027U 14033T   17312.32091641  .00001161  00000-0  12919-3 0  9998
2 40027  97.9188 224.8138 0012384 186.6362 173.4678 14.89036911183960
POPSAT-HIP-1            
1 40028U 14033U   17312.78907316  .00001275  00000-0  14336-3 0  9995
2 40028  97.9096 223.9153 0013139 182.1685 177.9477 14.88422669183980
FLOCK 1C-2              
1 40029U 14033V   17312.75132623  .00000606  00000-0  70222-4 0  9998
2 40029  97.9169 225.0890 0013024 181.2925 178.8216 14.89055638184018
FLOCK 1C-4              
1 40031U 14033X   17312.31195781  .00000741  00000-0  84915-4 0  9991
2 40031  97.9162 224.6056 0014266 182.0056 178.1079 14.88899182183946
QB50P2                  
1 40032U 14033Y   17312.49901510  .00000777  00000-0  90411-4 0  9993
2 40032  97.9032 222.2728 0011726 179.3716 180.7517 14.88110327183902
FLOCK 1C-11             
1 40033U 14033Z   17312.76431526  .00000092  00000-0  15307-4 0  9990
2 40033  97.9191 226.8189 0011797 171.0735 189.0744 14.90330670184125
ANTELSAT                
1 40034U 14033AA  17312.63003403  .00000491  00000-0  80727-4 0  9997
2 40034  97.8377 191.9232 0058631 186.9734 173.0666 14.73799173181664
FLOCK 1C-9              
1 40035U 14033AB  17312.73466921  .00001332  00000-0  14708-3 0  9997
2 40035  97.9213 225.5021 0011194 173.4756 186.6611 14.89112533184011
FLOCK 1C-6              
1 40036U 14033AC  17312.74541113  .00000921  00000-0  10326-3 0  9991
2 40036  97.9221 225.7616 0011412 174.2392 185.8948 14.89216943184037
PERSEUS-M2              
1 40037U 14033AD  17312.60528552  .00000315  00000-0  42009-4 0  9990
2 40037  97.9041 220.5615 0014126 187.0584 173.0435 14.86287624183265
FLOCK 1C-5              
1 40038U 14033AE  17312.35130662  .00000315  00000-0  39271-4 0  9991
2 40038  97.9193 225.1428 0013732 176.2195 183.9034 14.89184270183976
PERSEUS-M1              
1 40039U 14033AF  17312.30487324  .00000294  00000-0  39948-4 0  9994
2 40039  97.9045 219.7519 0014042 184.1762 175.9338 14.85910501183165
